NORAD_CAT_ID,OBJECT_NAME,OBJECT_TYPE,EPOCH,MEAN_MOTION,ECCENTRICITY,INCLINATION,RA_OF_ASC_NODE,ARG_OF_PERICENTER,MEAN_ANOMALY,BSTAR,MEAN_MOTION_DOT,MEAN_MOTION_DDOT,TLE_LINE0,TLE_LINE1,TLE_LINE2,SEMIMAJOR_AXIS,PERIOD,APOGEE,PERIGEE,DECAYED
52624.0,STARLINK-4009,PAYLOAD,2023-05-07 13:14:18,15.08833029,0.0001054,53.2163,244.9959,104.1577,255.9532,3.8506e-05,3.25e-06,0.0,0 STARLINK-4009,1 52624U 22052AC  23127.55160734  .00000325  00000-0  38506-4 0  9992,2 52624  53.2163 244.9959 0001054 104.1577 255.9532 15.08833029 54412,6917.902,95.438,540.496,539.038,0.0
52624.0,STARLINK-4009,PAYLOAD,2023-05-07 14:49:42,15.08835368,0.000101,53.2163,244.6995,89.7698,270.341,9.7629e-05,1.266e-05,0.0,0 STARLINK-4009,1 52624U 22052AC  23127.61784769  .00001266  00000-0  97629-4 0  9995,2 52624  53.2163 244.6995 0001010  89.7698 270.3410 15.08835368 54800,6917.895,95.438,540.458,539.061,0.0
52624.0,STARLINK-4009,PAYLOAD,2023-05-08 14:40:28,15.08861086,9.95e-05,53.2162,240.2403,101.7513,258.3591,0.0010702,0.00016795,0.0,0 STARLINK-4009,1 52624U 22052AC  23128.61144570  .00016795  00000-0  10702-2 0  9994,2 52624  53.2162 240.2403 0000995 101.7513 258.3591 15.08861086 54955,6917.816,95.436,540.369,538.993,0.0
52624.0,STARLINK-4009,PAYLOAD,2023-05-09 12:55:52,15.08854099,9.54e-05,53.2158,236.0762,92.724,267.3862,0.00046389,7.105e-05,0.0,0 STARLINK-4009,1 52624U 22052AC  23129.53880339  .00007105  00000-0  46389-3 0  9992,2 52624  53.2158 236.0762 0000954  92.7240 267.3862 15.08854099 54713,6917.837,95.437,540.362,539.042,0.0
52624.0,STARLINK-4009,PAYLOAD,2023-05-10 12:46:39,15.08841269,0.0001019,53.2155,231.6151,83.5567,276.5541,6.7719e-05,7.9e-06,0.0,0 STARLINK-4009,1 52624U 22052AC  23130.53240680  .00000790  00000-0  67719-4 0  9997,2 52624  53.2155 231.6151 0001019  83.5567 276.5541 15.08841269 54863,6917.877,95.437,540.446,539.037,0.0
52624.0,STARLINK-4009,PAYLOAD,2023-05-10 14:22:02,15.08852471,8.42e-05,53.2158,231.3187,91.6401,268.4687,0.00026841,3.988e-05,0.0,0 STARLINK-4009,1 52624U 22052AC  23130.59864115  .00003988  00000-0  26841-3 0  9990,2 52624  53.2158 231.3187 0000842  91.6401 268.4687 15.08852471 55254,6917.842,95.437,540.29,539.125,0.0
52624.0,STARLINK-4009,PAYLOAD,2023-05-10 23:54:21,15.08844652,9e-05,53.2158,229.5352,82.3104,277.799,0.0003328,5.013e-05,0.0,0 STARLINK-4009,1 52624U 22052AC  23130.99608506  .00005013  00000-0  33280-3 0  9990,2 52624  53.2158 229.5352 0000900  82.3104 277.7990 15.08844652 55318,6917.866,95.437,540.354,539.109,0.0
52624.0,STARLINK-4009,PAYLOAD,2023-05-11 11:02:03,15.08839871,9.97e-05,53.216,227.4529,71.9591,288.151,6.1554e-05,6.92e-06,0.0,0 STARLINK-4009,1 52624U 22052AC  23131.45976791  .00000692  00000-0  61554-4 0  9990,2 52624  53.2160 227.4529 0000997  71.9591 288.1510 15.08839871 55382,6917.881,95.438,540.435,539.056,0.0
52624.0,STARLINK-4009,PAYLOAD,2023-05-11 12:37:26,15.08846089,0.0001324,53.2171,227.155,72.6388,287.4748,0.00012217,1.657e-05,0.0,0 STARLINK-4009,1 52624U 22052AC  23131.52600623  .00001657  00000-0  12217-3 0  9999,2 52624  53.2171 227.1550 0001324  72.6388 287.4748 15.08846089 55016,6917.862,95.437,540.643,538.811,0.0
52624.0,STARLINK-4009,PAYLOAD,2023-05-11 23:45:08,15.08855734,0.0001194,53.2168,225.0753,73.5531,286.5592,0.0002412,3.555e-05,0.0,0 STARLINK-4009,1 52624U 22052AC  23131.98967975  .00003555  00000-0  24120-3 0  9990,2 52624  53.2168 225.0753 0001194  73.5531 286.5592 15.08855734 55462,6917.832,95.437,540.523,538.871,0.0
52624.0,STARLINK-4009,PAYLOAD,2023-05-12 23:35:55,15.08850816,0.0001301,53.2178,220.6138,84.143,275.971,0.00014962,2.095e-05,0.0,0 STARLINK-4009,1 52624U 22052AC  23132.98327868  .00002095  00000-0  14962-3 0  9993,2 52624  53.2178 220.6138 0001301  84.1430 275.9710 15.08850816 55614,6917.847,95.437,540.612,538.812,0.0
52624.0,STARLINK-4009,PAYLOAD,2023-05-13 12:19:00,15.08846429,0.0001137,53.216,218.2331,111.4745,248.6368,-5.6919e-05,-1.194e-05,0.0,0 STARLINK-4009,1 52624U 22052AC  23133.51319673 -.00001194  00000-0 -56919-4 0  9998,2 52624  53.2160 218.2331 0001137 111.4745 248.6368 15.08846429 55311,6917.861,95.437,540.512,538.939,0.0
52624.0,STARLINK-4009,PAYLOAD,2023-05-14 12:09:48,15.08832905,0.0001312,53.2169,213.7733,89.1512,270.963,-8.1619e-07,-3.01e-06,0.0,0 STARLINK-4009,1 52624U 22052AC  23134.50680913 -.00000301  00000-0 -81619-6 0  9992,2 52624  53.2169 213.7733 0001312  89.1512 270.9630 15.08832905 55846,6917.902,95.438,540.675,538.859,0.0
52624.0,STARLINK-4009,PAYLOAD,2023-05-15 12:00:36,15.08797039,0.0001323,53.2168,209.3146,94.3811,265.7332,0.00077404,0.00012038,0.0,0 STARLINK-4009,1 52624U 22052AC  23135.50042060  .00012038  00000-0  77404-3 0  9990,2 52624  53.2168 209.3146 0001323  94.3811 265.7332 15.08797039 55610,6918.012,95.44,540.792,538.961,0.0
52624.0,STARLINK-4009,PAYLOAD,2023-05-16 10:15:59,15.08833531,0.0001172,53.2164,205.1521,82.8499,277.2626,0.00010917,1.45e-05,0.0,0 STARLINK-4009,1 52624U 22052AC  23136.42777774  .00001450  00000-0  10917-3 0  9991,2 52624  53.2164 205.1521 0001172  82.8499 277.2626 15.08833531 56133,6917.9,95.438,540.576,538.954,0.0
52624.0,STARLINK-4009,PAYLOAD,2023-05-16 21:23:41,15.08837362,0.0001178,53.2165,203.0714,88.7642,271.3485,0.00012957,1.775e-05,0.0,0 STARLINK-4009,1 52624U 22052AC  23136.89145565  .00001775  00000-0  12957-3 0  9995,2 52624  53.2165 203.0714 0001178  88.7642 271.3485 15.08837362 55825,6917.888,95.438,540.568,538.939,0.0
52624.0,STARLINK-4009,PAYLOAD,2023-05-17 10:06:46,15.08842476,0.0001194,53.2167,200.6922,87.4909,272.622,8.2377e-05,1.024e-05,0.0,0 STARLINK-4009,1 52624U 22052AC  23137.42137319  .00001024  00000-0  82377-4 0  9994,2 52624  53.2167 200.6922 0001194  87.4909 272.6220 15.08842476 56285,6917.873,95.437,540.564,538.912,0.0
52624.0,STARLINK-4009,PAYLOAD,2023-05-17 21:14:28,15.0884121,0.0001184,53.2165,198.6107,88.8096,271.3032,8.8786e-05,1.126e-05,0.0,0 STARLINK-4009,1 52624U 22052AC  23137.88505315  .00001126  00000-0  88786-4 0  9992,2 52624  53.2165 198.6107 0001184  88.8096 271.3032 15.08841210 55972,6917.877,95.437,540.561,538.923,0.0
52624.0,STARLINK-4009,PAYLOAD,2023-05-18 11:32:56,15.08839403,0.0001256,53.2174,195.934,89.0421,271.0715,6.0044e-05,6.68e-06,0.0,0 STARLINK-4009,1 52624U 22052AC  23138.48121526  .00000668  00000-0  60044-4 0  9994,2 52624  53.2174 195.9340 0001256  89.0421 271.0715 15.08839403 56445,6917.882,95.438,540.616,538.878,0.0
52624.0,STARLINK-4009,PAYLOAD,2023-05-18 13:08:20,15.08841007,0.0001247,53.217,195.6362,89.1514,270.9621,7.0801e-05,8.39e-06,0.0,0 STARLINK-4009,1 52624U 22052AC  23138.54745388  .00000839  00000-0  70801-4 0  9991,2 52624  53.2170 195.6362 0001247  89.1514 270.9621 15.08841007 56072,6917.877,95.437,540.605,538.88,0.0
52624.0,STARLINK-4009,PAYLOAD,2023-05-19 20:56:02,15.08840717,0.0001256,53.2169,189.6887,88.7516,271.362,4.2544e-05,3.89e-06,0.0,0 STARLINK-4009,1 52624U 22052AC  23139.87225408  .00000389  00000-0  42544-4 0  9997,2 52624  53.2169 189.6887 0001256  88.7516 271.3620 15.08840717 56275,6917.878,95.438,540.612,538.874,0.0
52624.0,STARLINK-4009,PAYLOAD,2023-05-20 09:39:07,15.08845241,0.0001268,53.2169,187.3097,86.7518,273.362,8.9915e-05,1.144e-05,0.0,0 STARLINK-4009,1 52624U 22052AC  23140.40217036  .00001144  00000-0  89915-4 0  9999,2 52624  53.2169 187.3097 0001268  86.7518 273.3620 15.08845241 56354,6917.864,95.437,540.607,538.852,0.0
52624.0,STARLINK-4009,PAYLOAD,2023-05-21 07:54:32,15.0883576,0.0001167,53.2172,183.146,90.2891,269.8235,3.3331e-06,-2.35e-06,0.0,0 STARLINK-4009,1 52624U 22052AC  23141.32953916 -.00000235  00000-0  33331-5 0  9998,2 52624  53.2172 183.1460 0001167  90.2891 269.8235 15.08835760 56872,6917.893,95.438,540.566,538.951,0.0
52624.0,STARLINK-4009,PAYLOAD,2023-05-21 09:29:55,15.08834643,0.0001231,53.217,182.8494,84.2887,275.8245,4.61e-07,-2.81e-06,0.0,0 STARLINK-4009,1 52624U 22052AC  23141.39578021 -.00000281  00000-0  46100-6 0  9995,2 52624  53.2170 182.8494 0001231  84.2887 275.8245 15.08834643 56500,6917.897,95.438,540.613,538.91,0.0
52624.0,STARLINK-4009,PAYLOAD,2023-05-22 09:20:41,15.08844892,0.0001208,53.2168,178.3885,94.5186,265.5944,6.8027e-05,7.95e-06,0.0,0 STARLINK-4009,1 52624U 22052AC  23142.38937321  .00000795  00000-0  68027-4 0  9996,2 52624  53.2168 178.3885 0001208  94.5186 265.5944 15.08844892 57039,6917.865,95.437,540.566,538.895,0.0
52624.0,STARLINK-4009,PAYLOAD,2023-05-22 18:53:00,15.08844459,0.0001173,53.2172,176.6093,111.9611,248.1505,-2.6072e-05,-7.03e-06,0.0,0 STARLINK-4009,1 52624U 22052AC  23142.78681540 -.00000703  00000-0 -26072-4 0  9994,2 52624  53.2172 176.6093 0001173 111.9611 248.1505 15.08844459 56717,6917.867,95.437,540.543,538.92,0.0
52624.0,STARLINK-4009,PAYLOAD,2023-05-23 02:49:56,15.08834739,0.0001272,53.2176,175.1241,114.3039,245.8086,7.2177e-05,8.61e-06,0.0,0 STARLINK-4009,1 52624U 22052AC  23143.11802070  .00000861  00000-0  72177-4 0  9995,2 52624  53.2176 175.1241 0001272 114.3039 245.8086 15.08834739 57147,6917.896,95.438,540.641,538.882,0.0
52624.0,STARLINK-4009,PAYLOAD,2023-05-23 18:43:48,15.08835386,0.0001473,53.2174,172.15,129.9632,230.149,2.8785e-05,1.7e-06,0.0,0 STARLINK-4009,1 52624U 22052AC  23143.78042347  .00000170  00000-0  28785-4 0  9990,2 52624  53.2174 172.1500 0001473 129.9632 230.1490 15.08835386 56867,6917.894,95.438,540.778,538.74,0.0
52624.0,STARLINK-4009,PAYLOAD,2023-05-24 07:26:53,15.08843363,0.0001197,53.2177,169.7673,96.1063,264.0066,7.4784e-05,9.03e-06,0.0,0 STARLINK-4009,1 52624U 22052AC  23144.31033845  .00000903  00000-0  74784-4 0  9997,2 52624  53.2177 169.7673 0001197  96.1063 264.0066 15.08843363 57320,6917.87,95.437,540.563,538.907,0.0
52624.0,STARLINK-4009,PAYLOAD,2023-05-24 09:02:16,15.08842301,0.0001146,53.2169,169.4714,102.8838,257.2282,6.3441e-05,7.22e-06,0.0,0 STARLINK-4009,1 52624U 22052AC  23144.37657880  .00000722  00000-0  63441-4 0  9991,2 52624  53.2169 169.4714 0001146 102.8838 257.2282 15.08842301 56956,6917.873,95.437,540.531,538.946,0.0
